[{"OBJECT_NAME":"STARLINK-34157","OBJECT_ID":"2025-107W","EPOCH":"2026-03-09T10:21:50.750496","MEAN_MOTION":15.27592506,"ECCENTRICITY":0.00015662,"INCLINATION":42.9983,"RA_OF_ASC_NODE":202.7687,"ARG_OF_PERICENTER":199.7277,"MEAN_ANOMALY":160.3514,"EPHEMERIS_TYPE":0,"CLASSIFICATION_TYPE":"U","NORAD_CAT_ID":64084,"ELEMENT_SET_NO":999,"REV_AT_EPOCH":4606,"BSTAR":0.00097682222,"MEAN_MOTION_DOT":0.00026726,"MEAN_MOTION_DDOT":0},{"OBJECT_NAME":"COSMOS 1758","OBJECT_ID":"1986-046A","EPOCH":"2026-03-09T22:23:33.220896","MEAN_MOTION":15.25706639,"ECCENTRICITY":0.00131526,"INCLINATION":82.4607,"RA_OF_ASC_NODE":143.3203,"ARG_OF_PERICENTER":337.3781,"MEAN_ANOMALY":22.6875,"EPHEMERIS_TYPE":0,"CLASSIFICATION_TYPE":"U","NORAD_CAT_ID":16791,"ELEMENT_SET_NO":999,"REV_AT_EPOCH":16610,"BSTAR":0.00027304427,"MEAN_MOTION_DOT":7.006e-5,"MEAN_MOTION_DDOT":0}]
